1 90000           19337.16666667  .00000050  00000-0  13250-3 0 00008
2 90000 087.8263 136.4461 0009836 271.3462 154.9653 13.15256356000012
1 90001           19337.16666667  .00000251  00000-0  67008-3 0 00002
2 90001 087.8263 136.4461 0009835 271.3328 163.9788 13.15256156000010
1 90002           19337.16666667  .00000417  00000-0  11140-2 0 00002
2 90002 087.8263 136.4461 0009835 271.3161 172.9957 13.15256001000013
1 90003           19337.16666667  .00000565  00000-0  15084-2 0 00008
2 90003 087.8263 136.4461 0009834 271.2940 182.0179 13.15255865000012
1 90004           19337.16666667  .00000685  00000-0  18293-2 0 00007
2 90004 087.8263 136.4461 0009834 271.2661 191.0458 13.15255755000011
1 90005           19337.16666667  .00000741  00000-0  19778-2 0 00000
2 90005 087.8263 136.4461 0009835 271.2343 200.0776 13.15255717000012
1 90006           19337.16666667  .00000746  00000-0  19914-2 0 00008
2 90006 087.8263 136.4461 0009837 271.2010 209.1109 13.15255726000016
1 90007           19337.16666667  .00000705  00000-0  18815-2 0 00003
2 90007 087.8263 136.4461 0009842 271.1700 218.1419 13.15255778000019
1 90008           19337.16666667  .00000626  00000-0  16708-2 0 00005
2 90008 087.8263 136.4461 0009848 271.1452 227.1666 13.15255862000018
1 90009           19337.16666667  .00000520  00000-0  13884-2 0 00001
2 90009 087.8263 136.4461 0009855 271.1299 236.1818 13.15255968000012
1 90010           19337.16666667  .00000399  00000-0  10663-2 0 00009
2 90010 087.8263 136.4461 0009863 271.1265 245.1852 13.15256083000013
1 90011           19337.16666667  .00000247  00000-0  65958-3 0 00000
2 90011 087.8263 136.4461 0009870 271.1354 254.1761 13.15256220000013
1 90012           19337.16666667  .00000115  00000-0  30743-3 0 00009
2 90012 087.8263 136.4461 0009877 271.1551 263.1564 13.15256332000015
1 90013           19337.16666667  .00000000  00000-0  00000-0 0 00003
2 90013 087.8263 136.4461 0009882 271.1828 272.1286 13.15256423000011
1 90014           19337.16666667 -.00000088  00000-0 -23454-3 0 00003
2 90014 087.8263 136.4461 0009886 271.2150 281.0964 13.15256485000015
1 90015           19337.16666667 -.00000126  00000-0 -33749-3 0 00005
2 90015 087.8263 136.4461 0009888 271.2476 290.0638 13.15256499000012
1 90016           19337.16666667 -.00000159  00000-0 -42438-3 0 00007
2 90016 087.8263 136.4461 0009888 271.2777 299.0338 13.15256505000011
1 90017           19337.16666667 -.00000154  00000-0 -41092-3 0 00008
2 90017 087.8263 136.4461 0009888 271.3030 308.0085 13.15256476000012
1 90018           19337.16666667 -.00000117  00000-0 -31133-3 0 00003
2 90018 087.8263 136.4461 0009887 271.3232 316.9884 13.15256422000012
1 90019           19337.16666667 -.00000057  00000-0 -15134-3 0 00000
2 90019 087.8263 136.4461 0009887 271.3391 325.9725 13.15256352000015
1 90020           19337.16666667  .00000013  00000-0  35702-4 0 00006
2 90020 087.8263 136.4461 0009887 271.3531 334.9585 13.15256279000015
1 90021           19337.16666667  .00000080  00000-0  21342-3 0 00005
2 90021 087.8263 136.4461 0009887 271.3679 343.9438 13.15256217000018
1 90022           19337.16666667  .00000115  00000-0  30579-3 0 00007
2 90022 087.8263 136.4461 0009888 271.3859 352.9258 13.15256198000018
1 90023           19337.16666667  .00000139  00000-0  37043-3 0 00007
2 90023 087.8263 136.4461 0009888 271.4089 001.9028 13.15256194000017
1 90024           19337.16666667  .00000147  00000-0  39134-3 0 00000
2 90024 087.8263 136.4461 0009888 271.4370 010.8747 13.15256207000013
1 90025           19337.16666667  .00000102  00000-0  27238-3 0 00004
2 90025 087.8263 136.4461 0009887 271.4688 019.8428 13.15256281000012
1 90026           19337.16666667  .00000023  00000-0  61092-4 0 00004
2 90026 087.8263 136.4461 0009884 271.5016 028.8098 13.15256389000018
1 90027           19337.16666667 -.00000084  00000-0 -22558-3 0 00007
2 90027 087.8263 136.4461 0009879 271.5318 037.7795 13.15256522000010
1 90028           19337.16666667 -.00000210  00000-0 -56111-3 0 00001
2 90028 087.8263 136.4461 0009873 271.5556 046.7556 13.15256670000018
1 90029           19337.16666667 -.00000342  00000-0 -91324-3 0 00003
2 90029 087.8263 136.4461 0009866 271.5697 055.7414 13.15256820000017
1 90030           19337.16666667 -.00000467  00000-0 -12480-2 0 00008
2 90030 087.8263 136.4461 0009858 271.5720 064.7390 13.15256957000011
1 90031           19337.16666667 -.00000604  00000-0 -16116-2 0 00002
2 90031 087.8263 136.4461 0009851 271.5619 073.7490 13.15257095000017
1 90032           19337.16666667 -.00000698  00000-0 -18641-2 0 00001
2 90032 087.8263 136.4461 0009844 271.5412 082.7696 13.15257187000011
1 90033           19337.16666667 -.00000755  00000-0 -20170-2 0 00006
2 90033 087.8263 136.4461 0009839 271.5125 091.7982 13.15257237000011
1 90034           19337.16666667 -.00000768  00000-0 -20499-2 0 00005
2 90034 087.8263 136.4461 0009836 271.4798 100.8310 13.15257237000011
1 90035           19337.16666667 -.00000714  00000-0 -19054-2 0 00002
2 90035 087.8263 136.4461 0009834 271.4470 109.8639 13.15257171000017
1 90036           19337.16666667 -.00000639  00000-0 -17060-2 0 00004
2 90036 087.8263 136.4461 0009834 271.4172 118.8938 13.15257080000018
1 90037           19337.16666667 -.00000515  00000-0 -13748-2 0 00007
2 90037 087.8263 136.4461 0009834 271.3925 127.9186 13.15256941000015
1 90038           19337.16666667 -.00000350  00000-0 -93378-3 0 00003
2 90038 087.8263 136.4461 0009835 271.3734 136.9378 13.15256765000012
1 90039           19337.16666667 -.00000156  00000-0 -41721-3 0 00003
2 90039 087.8263 136.4461 0009836 271.3588 145.9525 13.15256564000012
